NORAD_CAT_ID,OBJECT_NAME,OBJECT_TYPE,EPOCH,MEAN_MOTION,ECCENTRICITY,INCLINATION,RA_OF_ASC_NODE,ARG_OF_PERICENTER,MEAN_ANOMALY,BSTAR,MEAN_MOTION_DOT,MEAN_MOTION_DDOT,TLE_LINE0,TLE_LINE1,TLE_LINE2,SEMIMAJOR_AXIS,PERIOD,APOGEE,PERIGEE,DECAYED
51745.0,STARLINK-3449,PAYLOAD,2022-05-24 22:00:00,15.08832311,0.000173,53.2143,55.6064,55.6851,116.5438,-0.0009903,-0.00016011,0.0,0 STARLINK-3449,1 51745U 22016AH  22144.91667824 -.00016011  00000-0 -99030-3 0  9994,2 51745  53.2143  55.6064 0001730  55.6851 116.5438 15.08832311 15645,6917.904,95.438,540.966,538.572,0.0
51745.0,STARLINK-3449,PAYLOAD,2022-05-25 12:00:00,15.08845808,0.0001672,53.2147,52.987,54.4569,48.0385,-0.00078264,-0.00012724,0.0,0 STARLINK-3449,1 51745U 22016AH  22145.50001157 -.00012724  00000-0 -78264-3 0  9994,2 51745  53.2147  52.9870 0001672  54.4569  48.0385 15.08845808 15737,6917.863,95.437,540.884,538.571,0.0
51745.0,STARLINK-3449,PAYLOAD,2022-05-25 14:00:01,15.08833355,0.0001631,53.2145,52.6125,55.3884,140.0112,0.00065039,0.00010076,0.0,0 STARLINK-3449,1 51745U 22016AH  22145.58334491  .00010076  00000-0  65039-3 0  9994,2 51745  53.2145  52.6125 0001631  55.3884 140.0112 15.08833355  1303,6917.901,95.438,540.894,538.637,0.0
51745.0,STARLINK-3449,PAYLOAD,2022-05-25 21:05:11,15.0884811,0.0001979,53.2159,51.2886,41.5192,318.595,-0.0001169,-2.149e-05,0.0,0 STARLINK-3449,1 51745U 22016AH  22145.87860700 -.00002149  00000-0 -11690-3 0  9991,2 51745  53.2159  51.2886 0001979  41.5192 318.5950 15.08848110 14650,6917.856,95.437,541.09,538.352,0.0
51745.0,STARLINK-3449,PAYLOAD,2022-05-26 14:00:01,15.08820684,0.0001582,53.2151,48.1232,54.1838,175.9986,0.0006027999999999,9.314e-05,0.0,0 STARLINK-3449,1 51745U 22016AH  22146.58334491  .00009314  00000-0  60280-3 0  9991,2 51745  53.2151  48.1232 0001582  54.1838 175.9986 15.08820684 15896,6917.939,95.439,540.899,538.71,0.0
51745.0,STARLINK-3449,PAYLOAD,2022-05-26 22:00:00,15.08822502,0.0001774999999999,53.2154,46.6282,54.2813,187.4771,-0.00070156,-0.00011431,0.0,0 STARLINK-3449,1 51745U 22016AH  22146.91667824 -.00011431  00000-0 -70156-3 0  9995,2 51745  53.2154  46.6282 0001775  54.2813 187.4771 15.08822502  1307,6917.934,95.439,541.0269999999998,538.571,0.0
51745.0,STARLINK-3449,PAYLOAD,2022-05-27 14:00:01,15.08808095,0.0001662,53.2154,43.6343,57.8441,207.0665,0.0034357,0.00054769,0.0,0 STARLINK-3449,1 51745U 22016AH  22147.58334491  .00054769  00000-0  34357-2 0  9991,2 51745  53.2154  43.6343 0001662  57.8441 207.0665 15.08808095  1305,6917.978,95.44,540.993,538.693,0.0
51745.0,STARLINK-3449,PAYLOAD,2022-05-27 16:00:00,15.08819061,0.0001674,53.2156,43.2601,59.6536,298.1479,0.0029482,0.00046918,0.0,0 STARLINK-3449,1 51745U 22016AH  22147.66667824  .00046918  00000-0  29482-2 0  9999,2 51745  53.2156  43.2601 0001674  59.6536 298.1479 15.08819061 16055,6917.944,95.439,540.967,538.651,0.0
51745.0,STARLINK-3449,PAYLOAD,2022-05-27 22:00:01,15.08853142,0.0001774,53.2155,42.1393,55.2222,221.3315,-0.00057364,-9.409e-05,0.0,0 STARLINK-3449,1 51745U 22016AH  22147.91668981 -.00009409  00000-0 -57364-3 0  9999,2 51745  53.2155  42.1393 0001774  55.2222 221.3315 15.08853142  1302,6917.84,95.437,540.932,538.4780000000002,0.0
51745.0,STARLINK-3449,PAYLOAD,2022-05-28 06:00:02,15.08873977,0.0001753,53.2151,40.6431,51.5601,236.5976,-0.0017773,-0.00028489,0.0,0 STARLINK-3449,1 51745U 22016AH  22148.25002315 -.00028489  00000-0 -17773-2 0  9998,2 51745  53.2151  40.6431 0001753  51.5601 236.5976 15.08873977 16148,6917.776999999999,95.435,540.854,538.429,0.0
51745.0,STARLINK-3449,PAYLOAD,2022-05-28 14:00:01,15.08819855,0.0001543,53.2152,39.1451,58.5471,241.1832,0.0039301,0.00062782,0.0,0 STARLINK-3449,1 51745U 22016AH  22148.58334491  .00062782  00000-0  39301-2 0  9990,2 51745  53.2152  39.1451 0001543  58.5471 241.1832 15.08819855  1303,6917.941999999999,95.439,540.874,538.74,0.0
51745.0,STARLINK-3449,PAYLOAD,2022-05-28 20:37:33,15.08837374,0.0001766,53.2161,37.9062,56.4561,303.66,0.0001641999999999,2.326e-05,0.0,0 STARLINK-3449,1 51745U 22016AH  22148.85941221  .00002326  00000-0  16420-3 0  9991,2 51745  53.2161  37.9062 0001766  56.4561 303.6600 15.08837374 15107,6917.888000000001,95.438,540.975,538.5319999999998,0.0
51745.0,STARLINK-3449,PAYLOAD,2022-05-29 06:00:02,15.08868345,0.000165,53.2147,36.1539,50.8275,272.1829,-0.0036187,-0.00057465,0.0,0 STARLINK-3449,1 51745U 22016AH  22149.25002315 -.00057465  00000-0 -36187-2 0  9995,2 51745  53.2147  36.1539 0001650  50.8275 272.1829 15.08868345 16299,6917.794,95.436,540.8,538.5169999999998,0.0
51745.0,STARLINK-3449,PAYLOAD,2022-05-29 14:00:01,15.08807115,0.0001629,53.2148,34.6562,61.1665,273.3824,0.00081511,0.00012697,0.0,0 STARLINK-3449,1 51745U 22016AH  22149.58334491  .00012697  00000-0  81511-3 0  9992,2 51745  53.2148  34.6562 0001629  61.1665 273.3824 15.08807115  1305,6917.981,95.44,540.9730000000002,538.719,0.0
51745.0,STARLINK-3449,PAYLOAD,2022-05-29 22:03:44,15.08830916,0.0001493,53.2165,33.1489,57.1451,302.9684,-6.115e-05,-1.261e-05,0.0,0 STARLINK-3449,1 51745U 22016AH  22149.91926509 -.00001261  00000-0 -61150-4 0  9991,2 51745  53.2165  33.1489 0001493  57.1451 302.9684 15.08830916 15261,6917.908,95.438,540.806,538.74,0.0
51745.0,STARLINK-3449,PAYLOAD,2022-05-30 06:00:00,15.0882245,0.0001809,53.2142,31.6649,55.976000000000006,301.6864,-0.00053866,-8.847e-05,0.0,0 STARLINK-3449,1 51745U 22016AH  22150.25001157 -.00008847  00000-0 -53866-3 0  9994,2 51745  53.2142  31.6649 0001809  55.9760 301.6864 15.08822450 16448,6917.934,95.439,541.05,538.548,0.0
51745.0,STARLINK-3449,PAYLOAD,2022-05-30 14:00:01,15.08797463,0.0001728,53.2142,30.1671,64.0971,305.1385,0.0034333,0.00054714,0.0,0 STARLINK-3449,1 51745U 22016AH  22150.58334491  .00054714  00000-0  34333-2 0  9999,2 51745  53.2142  30.1671 0001728  64.0971 305.1385 15.08797463  1303,6918.01,95.44,541.071,538.68,0.0
51745.0,STARLINK-3449,PAYLOAD,2022-05-30 22:00:00,15.08832615,0.0001877,53.2142,28.6724,59.5228,321.2768,-0.00073385,-0.00011946,0.0,0 STARLINK-3449,1 51745U 22016AH  22150.91667824 -.00011946  00000-0 -73385-3 0  9998,2 51745  53.2142  28.6724 0001877  59.5228 321.2768 15.08832615  1306,6917.903,95.438,541.066,538.469,0.0
51745.0,STARLINK-3449,PAYLOAD,2022-05-31 06:00:02,15.08844927,0.0001875,53.214,27.1755,57.2061,335.2308,-0.0010664,-0.00017222,0.0,0 STARLINK-3449,1 51745U 22016AH  22151.25002315 -.00017222  00000-0 -10664-2 0  9997,2 51745  53.2140  27.1755 0001875  57.2061 335.2308 15.08844927 16603,6917.865,95.437,541.0269999999998,538.433,0.0
51745.0,STARLINK-3449,PAYLOAD,2022-05-31 21:45:18,15.08867644,0.0002017,53.2156,24.2271,56.0851,304.0333,-0.00034952,-5.851e-05,0.0,0 STARLINK-3449,1 51745U 22016AH  22151.90645874 -.00005851  00000-0 -34952-3 0  9994,2 51745  53.2156  24.2271 0002017  56.0851 304.0333 15.08867644 15561,6917.795999999999,95.436,541.056,538.266,0.0
51745.0,STARLINK-3449,PAYLOAD,2022-05-31 22:00:00,15.08854806,0.000195,53.2141,24.183000000000003,59.9081,355.6606,-0.00058265,-9.553e-05,0.0,0 STARLINK-3449,1 51745U 22016AH  22151.91667824 -.00009553  00000-0 -58265-3 0  9990,2 51745  53.2141  24.1830 0001950  59.9081 355.6606 15.08854806 16705,6917.835,95.437,541.049,538.351,0.0
51745.0,STARLINK-3449,PAYLOAD,2022-06-01 20:00:01,15.0886426,0.0001837,53.2144,20.0671,59.3641,298.1193,-0.0029723,-0.00047314,0.0,0 STARLINK-3449,1 51745U 22016AH  22152.83334491 -.00047314  00000-0 -29723-2 0  9996,2 51745  53.2144  20.0671 0001837  59.3641 298.1193 15.08864260  1303,6917.806,95.436,540.942,538.4,0.0
51745.0,STARLINK-3449,PAYLOAD,2022-06-02 21:26:53,15.08836329,0.0001943,53.2166,15.3052,65.667,294.4525,-5.3105e-05,-1.133e-05,0.0,0 STARLINK-3449,1 51745U 22016AH  22153.89367373 -.00001133  00000-0 -53105-4 0  9990,2 51745  53.2166  15.3052 0001943  65.6670 294.4525 15.08836329 15866,6917.892,95.438,541.101,538.4119999999998,0.0
51745.0,STARLINK-3449,PAYLOAD,2022-06-03 03:48:25,15.0884142,0.0001885,53.2161,14.1159,63.5365,296.5821,-5.4923e-05,-1.162e-05,0.0,0 STARLINK-3449,1 51745U 22016AH  22154.15863050 -.00001162  00000-0 -54923-4 0  9994,2 51745  53.2161  14.1159 0001885  63.5365 296.5821 15.08841420 17030,6917.876,95.437,541.045,538.437,0.0
51745.0,STARLINK-3449,PAYLOAD,2022-06-03 05:23:48,15.08842908,0.0001838,53.2158,13.8185,63.7778,296.3403,-5.987800000000001e-05,-1.241e-05,0.0,0 STARLINK-3449,1 51745U 22016AH  22154.22486943 -.00001241  00000-0 -59878-4 0  9996,2 51745  53.2158  13.8185 0001838  63.7778 296.3403 15.08842908 15910,6917.871999999999,95.437,541.008,538.465,0.0
51745.0,STARLINK-3449,PAYLOAD,2022-06-03 21:17:39,15.0884607,0.0001859,53.2158,10.8449,62.055,298.063,2.6208e-05,1.29e-06,0.0,0 STARLINK-3449,1 51745U 22016AH  22154.88726214  .00000129  00000-0  26208-4 0  9999,2 51745  53.2158  10.8449 0001859  62.0550 298.0630 15.08846070 17145,6917.861999999999,95.437,541.013,538.441,0.0
51745.0,STARLINK-3449,PAYLOAD,2022-06-04 06:49:59,15.08832034,0.0001812,53.2153,9.0613,57.7562,302.3606,-2.9677e-05,-7.6e-06,0.0,0 STARLINK-3449,1 51745U 22016AH  22155.28471289 -.00000760  00000-0 -29677-4 0  9999,2 51745  53.2153   9.0613 0001812  57.7562 302.3606 15.08832034 17200,6917.905,95.438,541.023,538.516,0.0
51745.0,STARLINK-3449,PAYLOAD,2022-06-05 22:00:00,15.08822378,0.0001675999999999,53.2148,1.7359,57.625,171.9004,0.0010694,0.00016764,0.0,0 STARLINK-3449,1 51745U 22016AH  22156.91667824  .00016764  00000-0  10694-2 0  9998,2 51745  53.2148   1.7359 0001676  57.6250 171.9004 15.08822378 17450,6917.934,95.439,540.9590000000002,538.64,0.0
51745.0,STARLINK-3449,PAYLOAD,2022-06-06 14:00:01,15.08845079,0.0001559,53.2146,358.7413,67.2675,185.4302,0.00055041,8.484e-05,0.0,0 STARLINK-3449,1 51745U 22016AH  22157.58334491  .00008484  00000-0  55041-3 0  9999,2 51745  53.2146 358.7413 0001559  67.2675 185.4302 15.08845079  1303,6917.865,95.437,540.808,538.651,0.0
